[{"OBJECT_NAME":"STARLINK-36595","OBJECT_ID":"2026-020Y","EPOCH":"2026-03-09T22:00:01.999584","MEAN_MOTION":15.68201858,"ECCENTRICITY":0.00012094,"INCLINATION":42.999,"RA_OF_ASC_NODE":140.3235,"ARG_OF_PERICENTER":283.6105,"MEAN_ANOMALY":204.2626,"EPHEMERIS_TYPE":0,"CLASSIFICATION_TYPE":"U","NORAD_CAT_ID":67639,"ELEMENT_SET_NO":999,"REV_AT_EPOCH":599,"BSTAR":-0.019427213,"MEAN_MOTION_DOT":-0.01971633,"MEAN_MOTION_DDOT":0},{"OBJECT_NAME":"SL-8 R\/B","OBJECT_ID":"1990-078B","EPOCH":"2026-03-09T21:52:42.731616","MEAN_MOTION":14.89068601,"ECCENTRICITY":0.03622553,"INCLINATION":82.9007,"RA_OF_ASC_NODE":251.1111,"ARG_OF_PERICENTER":13.2503,"MEAN_ANOMALY":347.792,"EPHEMERIS_TYPE":0,"CLASSIFICATION_TYPE":"U","NORAD_CAT_ID":20775,"ELEMENT_SET_NO":999,"REV_AT_EPOCH":80933,"BSTAR":0.00056464849,"MEAN_MOTION_DOT":0.0001918,"MEAN_MOTION_DDOT":0}]
